H1 CPF  1  DLR 2022 07 22 10  7032 technosat            
H2  1704205 6203    42829 2022 07 22 00 00 00 2022 07 29 00 00 00    60 1 1  0 0 0
H9
10 0 59783  43200.000000  0       3092566.220      -6016602.483      -1705633.238
10 0 59783  43260.000000  0       3055826.763      -6142694.571      -1266563.795
10 0 59783  43320.000000  0       3005234.031      -6242545.270       -822123.982
10 0 59783  43380.000000  0       2941232.096      -6315613.072       -374198.159
10 0 59783  43440.000000  0       2864326.179      -6361474.267         75314.249
10 0 59783  43500.000000  0       2775079.481      -6379825.320        524506.917
10 0 59783  43560.000000  0       2674109.753      -6370484.753        971474.915
10 0 59783  43620.000000  0       2562085.565      -6333394.383       1414323.065
10 0 59783  43680.000000  0       2439722.342      -6268619.899       1851174.249
10 0 59783  43740.000000  0       2307778.137      -6176350.787       2280177.551
10 0 59783  43800.000000  0       2167049.257      -6056899.717       2699516.197
10 0 59783  43860.000000  0       2018365.765      -5910701.326       3107415.355
10 0 59783  43920.000000  0       1862586.810      -5738310.480       3502149.671
10 0 59783  43980.000000  0       1700595.849      -5540399.988       3882050.609
10 0 59783  44040.000000  0       1533295.817      -5317757.709       4245513.480
10 0 59783  44100.000000  0       1361604.299      -5071283.183       4591004.127
10 0 59783  44160.000000  0       1186448.684      -4801983.814       4917065.345
10 0 59783  44220.000000  0       1008761.255      -4510970.522       5222322.982
10 0 59783  44280.000000  0        829474.303      -4199452.858       5505491.595
10 0 59783  44340.000000  0        649515.375      -3868733.683       5765379.643
10 0 59783  44400.000000  0        469802.593      -3520203.490       6000894.229
10 0 59783  44460.000000  0        291240.092      -3155334.403       6211045.413
10 0 59783  44520.000000  0        114713.573      -2775673.876       6394950.106
10 0 59783  44580.000000  0        -58913.961      -2382838.076       6551835.534
10 0 59783  44640.000000  0       -228806.296      -1978505.013       6681042.260
10 0 59783  44700.000000  0       -394157.950      -1564407.436       6782026.793
10 0 59783  44760.000000  0       -554197.918      -1142325.433       6854363.786
10 0 59783  44820.000000  0       -708193.176       -714078.819       6897747.708
10 0 59783  44880.000000  0       -855451.991       -281519.359       6911994.077
10 0 59783  44940.000000  0       -995327.001        153477.137       6897040.195
10 0 59783  45000.000000  0      -1127218.028        589018.852       6852945.442
10 0 59783  45060.000000  0      -1250574.624       1023206.089       6779891.070
10 0 59783  45120.000000  0      -1364898.351       1454139.429       6678179.572
10 0 59783  45180.000000  0      -1469744.818       1879927.958       6548233.598
10 0 59783  45240.000000  0      -1564725.419       2298697.501       6390594.366
10 0 59783  45300.000000  0      -1649508.789       2708598.829       6205919.648
10 0 59783  45360.000000  0      -1723821.990       3107815.849       5994981.242
10 0 59783  45420.000000  0      -1787451.344       3494573.643       5758661.991
10 0 59783  45480.000000  0      -1840242.979       3867146.434       5497952.438
10 0 59783  45540.000000  0      -1882103.120       4223865.470       5213946.985
10 0 59783  45600.000000  0      -1912998.064       4563126.706       4907839.527
10 0 59783  45660.000000  0      -1932953.808       4883398.227       4580918.663
10 0 59783  45720.000000  0      -1942055.372       5183227.443       4234562.482
10 0 59783  45780.000000  0      -1940445.821       5461247.978       3870232.931
10 0 59783  45840.000000  0      -1928325.000       5716186.208       3489469.746
10 0 59783  45900.000000  0      -1905948.000       5946867.386       3093884.010
10 0 59783  45960.000000  0      -1873623.276       6152221.384       2685151.376
10 0 59783  46020.000000  0      -1831710.501       6331288.024       2265004.949
10 0 59783  46080.000000  0      -1780618.127       6483221.888       1835227.823
10 0 59783  46140.000000  0      -1720800.653       6607296.580       1397645.382
10 0 59783  46200.000000  0      -1652755.659       6702908.448        954117.401
10 0 59783  46260.000000  0      -1577020.625       6769579.730        506529.927
10 0 59783  46320.000000  0      -1494169.563       6806961.106         56787.046
10 0 59783  46380.000000  0      -1404809.454       6814833.698       -393197.492
10 0 59783  46440.000000  0      -1309576.464       6793110.431       -841508.810
10 0 59783  46500.000000  0      -1209131.973       6741836.585      -1286239.498
10 0 59783  46560.000000  0      -1104158.559       6661189.584      -1725498.031
10 0 59783  46620.000000  0       -995355.887       6551478.239      -2157417.052
10 0 59783  46680.000000  0       -883436.536       6413141.328      -2580161.501
10 0 59783  46740.000000  0       -769121.798       6246745.586      -2991936.544
10 0 59783  46800.000000  0       -653137.458       6052983.150      -3390995.296
10 0 59783  46860.000000  0       -536209.576       5832668.404      -3775646.355
10 0 59783  46920.000000  0       -419060.320       5586734.225      -4144261.047
10 0 59783  46980.000000  0       -302403.860       5316227.662      -4495280.328
10 0 59783  47040.000000  0       -186942.337       5022305.130      -4827221.302
10 0 59783  47100.000000  0        -73361.941       4706227.160      -5138683.401
10 0 59783  47160.000000  0         37670.901       4369352.655      -5428354.191
10 0 59783  47220.000000  0        145513.170       4013132.718      -5695014.739
10 0 59783  47280.000000  0        249548.731       3639104.078      -5937544.538
10 0 59783  47340.000000  0        349191.614       3248882.178      -6154925.946
10 0 59783  47400.000000  0        443889.069       2844153.986      -6346248.176
10 0 59783  47460.000000  0        533124.428       2426670.545      -6510710.816
10 0 59783  47520.000000  0        616419.764       1998239.342      -6647626.889
10 0 59783  47580.000000  0        693338.306       1560716.438      -6756425.529
10 0 59783  47640.000000  0        763486.579       1115998.347      -6836654.114
10 0 59783  47700.000000  0        826516.298        666013.882      -6887979.920
10 0 59783  47760.000000  0        882126.042        212715.836      -6910191.407
10 0 59783  47820.000000  0        930062.618       -241927.483      -6903198.944
10 0 59783  47880.000000  0        970122.158       -695940.704      -6867035.006
10 0 59783  47940.000000  0       1002150.959      -1147349.810      -6801853.960
10 0 59783  48000.000000  0       1026046.051      -1594190.576      -6707931.399
10 0 59783  48060.000000  0       1041755.484      -2034516.927      -6585663.056
10 0 59783  48120.000000  0       1049278.398      -2466409.291      -6435563.346
10 0 59783  48180.000000  0       1048664.788      -2887982.959      -6258263.441
10 0 59783  48240.000000  0       1040014.930      -3297396.374      -6054508.809
10 0 59783  48300.000000  0       1023478.551      -3692859.220      -5825156.213
10 0 59783  48360.000000  0        999253.773      -4072640.269      -5571170.282
10 0 59783  48420.000000  0        967585.803      -4435075.002      -5293619.671
10 0 59783  48480.000000  0        928765.354      -4778573.022      -4993672.839
10 0 59783  48540.000000  0        883126.779      -5101625.228      -4672593.379
10 0 59783  48600.000000  0        831045.967      -5402810.683      -4331734.882
10 0 59783  48660.000000  0        772938.012      -5680803.116      -3972535.381
10 0 59783  48720.000000  0        709254.636      -5934377.007      -3596511.396
10 0 59783  48780.000000  0        640481.415      -6162413.251      -3205251.650
10 0 59783  48840.000000  0        567134.812      -6363904.385      -2800410.436
10 0 59783  48900.000000  0        489759.036      -6537959.367      -2383700.655
10 0 59783  48960.000000  0        408922.716      -6683807.827      -1956886.513
10 0 59783  49020.000000  0        325215.415      -6800803.729      -1521775.937
10 0 59783  49080.000000  0        239244.037      -6888428.433      -1080212.791
10 0 59783  49140.000000  0        151629.113      -6946293.172       -634068.916
10 0 59783  49200.000000  0         63001.012      -6974140.907       -185236.018
10 0 59783  49260.000000  0        -26003.919      -6971847.549        264382.513
10 0 59783  49320.000000  0       -114747.233      -6939422.595        712879.858
10 0 59783  49380.000000  0       -202592.283      -6877009.117       1158354.075
10 0 59783  49440.000000  0       -288908.120      -6784883.092       1598916.397
10 0 59783  49500.000000  0       -373073.347      -6663452.079       2032699.458
10 0 59783  49560.000000  0       -454479.921      -6513253.265       2457865.406
10 0 59783  49620.000000  0       -532536.849      -6334950.875       2872613.901
10 0 59783  49680.000000  0       -606673.766      -6129332.860       3275189.874
10 0 59783  49740.000000  0       -676344.370      -5897307.084       3663890.890
10 0 59783  49800.000000  0       -741029.785      -5639897.124       4037074.327
10 0 59783  49860.000000  0       -800241.746      -5358237.477       4393164.328
10 0 59783  49920.000000  0       -853525.574      -5053568.234       4730658.364
10 0 59783  49980.000000  0       -900462.911      -4727229.382       5048133.433
10 0 59783  50040.000000  0       -940674.296      -4380654.701       5344251.948
10 0 59783  50100.000000  0       -973821.515      -4015365.220       5617767.269
10 0 59783  50160.000000  0       -999609.717      -3632962.261       5867528.769
10 0 59783  50220.000000  0      -1017789.259      -3235120.185       6092486.402
10 0 59783  50280.000000  0      -1028157.287      -2823578.927       6291694.799
10 0 59783  50340.000000  0      -1030559.065      -2400136.357       6464316.929
99
